start=new Date('2023-06-14T00:00:00.000Z').valueOf();
sats=[{"DECAY_DATE":null,"ELEMENT_SET_NO":"999","PERIAPSIS":"538.928","ARG_OF_PERICENTER":"89.2289","CLASSIFICATION_TYPE":"U","ECCENTRICITY":"0.00011960","TLE_LINE2":"2 52640  53.2174  71.1443 0001196  89.2289 270.8841 15.08836832 60062","SITE":"AFETR","RCS_SIZE":"LARGE","REV_AT_EPOCH":"6006","OBJECT_TYPE":"PAYLOAD","MEAN_MOTION_DOT":"0.00000058","GP_ID":"233874313","MEAN_ELEMENT_THEORY":"SGP4","INCLINATION":"53.2174","RA_OF_ASC_NODE":"71.1443","CENTER_NAME":"EARTH","TLE_LINE1":"1 52640U 22052AU  23164.06089300  .00000058  00000-0  21723-4 0  9992","MEAN_ANOMALY":"270.8841","OBJECT_NAME":"STARLINK-3977","EPOCH":"2023-06-13T01:27:41.155200","BSTAR":"0.00002172300000","NORAD_CAT_ID":"52640","COUNTRY_CODE":"US","MEAN_MOTION_DDOT":"0.0000000000000","LAUNCH_DATE":"2022-05-14","TIME_SYSTEM":"UTC","APOAPSIS":"540.582","MEAN_MOTION":"15.08836832","OBJECT_ID":"2022-052AU","SEMIMAJOR_AXIS":"6917.890","EPHEMERIS_TYPE":"0","PERIOD":"95.438","REF_FRAME":"TEME","FILE":"3932371"},{"EPOCH":"2023-06-13T20:00:30.504096","BSTAR":"-0.00019735000000","COUNTRY_CODE":"US","NORAD_CAT_ID":"52641","TLE_LINE1":"1 52641U 22052AV  23164.83368639 -.00003429  00000-0 -19735-3 0  9999","OBJECT_NAME":"STARLINK-3991","MEAN_ANOMALY":"253.6960","TIME_SYSTEM":"UTC","APOAPSIS":"540.811","MEAN_MOTION_DDOT":"0.0000000000000","LAUNCH_DATE":"2022-05-14","OBJECT_ID":"2022-052AV","MEAN_MOTION":"15.08853371","SEMIMAJOR_AXIS":"6917.840","REF_FRAME":"TEME","PERIOD":"95.437","FILE":"3932371","EPHEMERIS_TYPE":"0","ECCENTRICITY":"0.00016000","TLE_LINE2":"2 52641  53.2169  67.6496 0001600 106.4208 253.6960 15.08853371 60190","SITE":"AFETR","ELEMENT_SET_NO":"999","DECAY_DATE":null,"PERIAPSIS":"538.598","ARG_OF_PERICENTER":"106.4208","CLASSIFICATION_TYPE":"U","MEAN_MOTION_DOT":"-0.00003429","GP_ID":"233874560","MEAN_ELEMENT_THEORY":"SGP4","INCLINATION":"53.2169","REV_AT_EPOCH":"6019","RCS_SIZE":"LARGE","OBJECT_TYPE":"PAYLOAD","RA_OF_ASC_NODE":"67.6496","CENTER_NAME":"EARTH"},{"CENTER_NAME":"EARTH","RA_OF_ASC_NODE":"70.5723","GP_ID":"233806419","MEAN_MOTION_DOT":"0.00000766","MEAN_ELEMENT_THEORY":"SGP4","INCLINATION":"53.2169","REV_AT_EPOCH":"6046","RCS_SIZE":"LARGE","OBJECT_TYPE":"PAYLOAD","ECCENTRICITY":"0.00010630","SITE":"AFETR","TLE_LINE2":"2 52642  53.2169  70.5723 0001063 105.4655 254.6454 15.08836846 60462","ELEMENT_SET_NO":"999","DECAY_DATE":null,"ARG_OF_PERICENTER":"105.4655","PERIAPSIS":"539.020","CLASSIFICATION_TYPE":"U","REF_FRAME":"TEME","PERIOD":"95.438","FILE":"3931638","EPHEMERIS_TYPE":"0","SEMIMAJOR_AXIS":"6917.890","OBJECT_ID":"2022-052AW","MEAN_MOTION":"15.08836846","APOAPSIS":"540.490","TIME_SYSTEM":"UTC","MEAN_MOTION_DDOT":"0.0000000000000","LAUNCH_DATE":"2022-05-14","EPOCH":"2023-06-13T04:22:33.074400","BSTAR":"0.00006620200000","NORAD_CAT_ID":"52642","COUNTRY_CODE":"US","TLE_LINE1":"1 52642U 22052AW  23164.18232725  .00000766  00000-0  66202-4 0  9995","MEAN_ANOMALY":"254.6454","OBJECT_NAME":"STARLINK-3971"},{"GP_ID":"233873561","MEAN_MOTION_DOT":"0.00000132","MEAN_ELEMENT_THEORY":"SGP4","INCLINATION":"53.2182","REV_AT_EPOCH":"6017","RCS_SIZE":"LARGE","OBJECT_TYPE":"PAYLOAD","ECCENTRICITY":"0.00013000","TLE_LINE2":"2 52643  53.2182  67.9757 0001300  97.5286 262.5854 15.08838920 60175","SITE":"AFETR","ELEMENT_SET_NO":"999","DECAY_DATE":null,"ARG_OF_PERICENTER":"97.5286","PERIAPSIS":"538.849","CLASSIFICATION_TYPE":"U","CENTER_NAME":"EARTH","RA_OF_ASC_NODE":"67.9757","TIME_SYSTEM":"UTC","APOAPSIS":"540.648","MEAN_MOTION_DDOT":"0.0000000000000","LAUNCH_DATE":"2022-05-14","EPOCH":"2023-06-13T18:05:18.002112","BSTAR":"0.00002635100000","COUNTRY_CODE":"US","NORAD_CAT_ID":"52643","MEAN_ANOMALY":"262.5854","TLE_LINE1":"1 52643U 22052AX  23164.75368058  .00000132  00000-0  26351-4 0  9996","OBJECT_NAME":"STARLINK-3963","REF_FRAME":"TEME","PERIOD":"95.438","FILE":"3932371","EPHEMERIS_TYPE":"0","MEAN_MOTION":"15.08838920","OBJECT_ID":"2022-052AX","SEMIMAJOR_AXIS":"6917.884"},{"OBJECT_ID":"2022-052AY","MEAN_MOTION":"15.08838329","SEMIMAJOR_AXIS":"6917.885","EPHEMERIS_TYPE":"0","FILE":"3932371","PERIOD":"95.438","REF_FRAME":"TEME","OBJECT_NAME":"STARLINK-3985","TLE_LINE1":"1 52644U 22052AY  23164.84104861  .00000200  00000-0  30647-4 0  9996","MEAN_ANOMALY":"276.6658","COUNTRY_CODE":"US","NORAD_CAT_ID":"52644","EPOCH":"2023-06-13T20:11:06.599904","BSTAR":"0.00003064700000","LAUNCH_DATE":"2022-05-14","MEAN_MOTION_DDOT":"0.0000000000000","TIME_SYSTEM":"UTC","APOAPSIS":"540.596","RA_OF_ASC_NODE":"67.6142","CENTER_NAME":"EARTH","PERIAPSIS":"538.905","ARG_OF_PERICENTER":"83.4473","CLASSIFICATION_TYPE":"U","ELEMENT_SET_NO":"999","DECAY_DATE":null,"TLE_LINE2":"2 52644  53.2178  67.6142 0001222  83.4473 276.6658 15.08838329 60183","SITE":"AFETR","ECCENTRICITY":"0.00012220","OBJECT_TYPE":"PAYLOAD","REV_AT_EPOCH":"6018","RCS_SIZE":"LARGE","INCLINATION":"53.2178","MEAN_ELEMENT_THEORY":"SGP4","MEAN_MOTION_DOT":"0.00000200","GP_ID":"233873813"},{"SEMIMAJOR_AXIS":"6917.890","OBJECT_ID":"2022-052AZ","MEAN_MOTION":"15.08836708","FILE":"3932371","PERIOD":"95.438","REF_FRAME":"TEME","EPHEMERIS_TYPE":"0","NORAD_CAT_ID":"52645","COUNTRY_CODE":"US","EPOCH":"2023-06-13T18:19:50.645568","BSTAR":"0.00000819710000","OBJECT_NAME":"STARLINK-3973","TLE_LINE1":"1 52645U 22052AZ  23164.76378062 -.00000157  00000-0  81971-5 0  9993","MEAN_ANOMALY":"257.7572","APOAPSIS":"540.613","TIME_SYSTEM":"UTC","LAUNCH_DATE":"2022-05-14","MEAN_MOTION_DDOT":"0.0000000000000","RA_OF_ASC_NODE":"68.0674","CENTER_NAME":"EARTH","SITE":"AFETR","TLE_LINE2":"2 52645  53.2187  68.0674 0001240 102.3559 257.7572 15.08836708 60178","ECCENTRICITY":"0.00012400","PERIAPSIS":"538.898","ARG_OF_PERICENTER":"102.3559","CLASSIFICATION_TYPE":"U","DECAY_DATE":null,"ELEMENT_SET_NO":"999","INCLINATION":"53.2187","MEAN_ELEMENT_THEORY":"SGP4","MEAN_MOTION_DOT":"-0.00000157","GP_ID":"233874060","OBJECT_TYPE":"PAYLOAD","REV_AT_EPOCH":"6017","RCS_SIZE":"LARGE"},{"SEMIMAJOR_AXIS":"6917.894","OBJECT_ID":"2022-052BA","MEAN_MOTION":"15.08835484","EPHEMERIS_TYPE":"0","REF_FRAME":"TEME","PERIOD":"95.438","FILE":"3932371","TLE_LINE1":"1 52646U 22052BA  23164.83096493  .00000580  00000-0  54503-4 0  9996","MEAN_ANOMALY":"266.2982","OBJECT_NAME":"STARLINK-3832","EPOCH":"2023-06-13T19:56:35.369952","BSTAR":"0.00005450300000","COUNTRY_CODE":"US","NORAD_CAT_ID":"52646","MEAN_MOTION_DDOT":"0.0000000000000","LAUNCH_DATE":"2022-05-14","APOAPSIS":"540.450","TIME_SYSTEM":"UTC","RA_OF_ASC_NODE":"67.6674","CENTER_NAME":"EARTH","DECAY_DATE":null,"ELEMENT_SET_NO":"999","PERIAPSIS":"539.068","ARG_OF_PERICENTER":"93.8125","CLASSIFICATION_TYPE":"U","ECCENTRICITY":"0.00009990","SITE":"AFETR","TLE_LINE2":"2 52646  53.2186  67.6674 0000999  93.8125 266.2982 15.08835484 60198","REV_AT_EPOCH":"6019","RCS_SIZE":"LARGE","OBJECT_TYPE":"PAYLOAD","MEAN_MOTION_DOT":"0.00000580","GP_ID":"233872812","INCLINATION":"53.2186","MEAN_ELEMENT_THEORY":"SGP4"},{"RA_OF_ASC_NODE":"68.0998","CENTER_NAME":"EARTH","SITE":"AFETR","TLE_LINE2":"2 52647  53.2184  68.0998 0001163  90.1934 269.9191 15.08837349 60186","ECCENTRICITY":"0.00011630","PERIAPSIS":"538.949","ARG_OF_PERICENTER":"90.1934","CLASSIFICATION_TYPE":"U","ELEMENT_SET_NO":"999","DECAY_DATE":null,"INCLINATION":"53.2184","MEAN_ELEMENT_THEORY":"SGP4","GP_ID":"233873061","MEAN_MOTION_DOT":"-0.00000241","OBJECT_TYPE":"PAYLOAD","REV_AT_EPOCH":"6018","RCS_SIZE":"LARGE","SEMIMAJOR_AXIS":"6917.888","OBJECT_ID":"2022-052BB","MEAN_MOTION":"15.08837349","FILE":"3932371","PERIOD":"95.438","REF_FRAME":"TEME","EPHEMERIS_TYPE":"0","NORAD_CAT_ID":"52647","COUNTRY_CODE":"US","EPOCH":"2023-06-13T18:09:14.810688","BSTAR":"0.00000297240000","MEAN_ANOMALY":"269.9191","TLE_LINE1":"1 52647U 22052BB  23164.75642142 -.00000241  00000-0  29724-5 0  9999","OBJECT_NAME":"STARLINK-3846","APOAPSIS":"540.558","TIME_SYSTEM":"UTC","LAUNCH_DATE":"2022-05-14","MEAN_MOTION_DDOT":"0.0000000000000"},{"TLE_LINE1":"1 52648U 22052BC  23164.76008910 -.00000490  00000-0 -12683-4 0  9992","OBJECT_NAME":"STARLINK-3854","MEAN_ANOMALY":"254.5797","NORAD_CAT_ID":"52648","COUNTRY_CODE":"US","EPOCH":"2023-06-13T18:14:31.698240","BSTAR":"-0.00001268300000","LAUNCH_DATE":"2022-05-14","MEAN_MOTION_DDOT":"0.0000000000000","TIME_SYSTEM":"UTC","APOAPSIS":"540.505","OBJECT_ID":"2022-052BC","MEAN_MOTION":"15.08835174","SEMIMAJOR_AXIS":"6917.895","EPHEMERIS_TYPE":"0","FILE":"3932371","PERIOD":"95.438","REF_FRAME":"TEME","PERIAPSIS":"539.015","CLASSIFICATION_TYPE":"U","ARG_OF_PERICENTER":"105.5314","DECAY_DATE":null,"ELEMENT_SET_NO":"999","TLE_LINE2":"2 52648  53.2178  67.9744 0001077 105.5314 254.5797 15.08835174 60179","SITE":"AFETR","ECCENTRICITY":"0.00010770","OBJECT_TYPE":"PAYLOAD","RCS_SIZE":"LARGE","REV_AT_EPOCH":"6017","INCLINATION":"53.2178","MEAN_ELEMENT_THEORY":"SGP4","MEAN_MOTION_DOT":"-0.00000490","GP_ID":"233874314","RA_OF_ASC_NODE":"67.9744","CENTER_NAME":"EARTH"},{"CENTER_NAME":"EARTH","RA_OF_ASC_NODE":"67.3541","MEAN_ELEMENT_THEORY":"SGP4","INCLINATION":"53.2171","MEAN_MOTION_DOT":"0.00000381","GP_ID":"233874561","OBJECT_TYPE":"PAYLOAD","RCS_SIZE":"LARGE","REV_AT_EPOCH":"6020","TLE_LINE2":"2 52649  53.2171  67.3541 0001013  92.4449 267.6659 15.08839432 60202","SITE":"AFETR","ECCENTRICITY":"0.00010130","ARG_OF_PERICENTER":"92.4449","PERIAPSIS":"539.046","CLASSIFICATION_TYPE":"U","ELEMENT_SET_NO":"999","DECAY_DATE":null,"FILE":"3932371","REF_FRAME":"TEME","PERIOD":"95.438","EPHEMERIS_TYPE":"0","OBJECT_ID":"2022-052BD","MEAN_MOTION":"15.08839432","SEMIMAJOR_AXIS":"6917.882","TIME_SYSTEM":"UTC","APOAPSIS":"540.448","LAUNCH_DATE":"2022-05-14","MEAN_MOTION_DDOT":"0.0000000000000","COUNTRY_CODE":"US","NORAD_CAT_ID":"52649","EPOCH":"2023-06-13T20:48:10.425312","BSTAR":"0.00004201600000","TLE_LINE1":"1 52649U 22052BD  23164.86678733  .00000381  00000-0  42016-4 0  9990","OBJECT_NAME":"STARLINK-3868","MEAN_ANOMALY":"267.6659"}];
